[
  {
    "OBJECT_NAME": "STARLINK-5287",
    "OBJECT_ID": "23010AA",
    "EPOCH": "2025-11-11T06:50:15.360000",
    "MEAN_MOTION": 14.98330012,
    "ECCENTRICITY": 0.0003132,
    "INCLINATION": 69.9988,
    "RA_OF_ASC_NODE": 322.981,
    "ARG_OF_PERICENTER": 272.4466,
    "MEAN_ANOMALY": 87.6334,
    "EPHEMERIS_TYPE": 0,
    "CLASSIFICATION_TYPE": "U",
    "NORAD_CAT_ID": 55293,
    "ELEMENT_SET_NO": 999,
    "REV_AT_EPOCH": 15553,
    "BSTAR": 0.00010022,
    "MEAN_MOTION_DOT": 1.103e-05,
    "MEAN_MOTION_DDOT": 0.0,
    "TLE_LINE1": "1 55293U 23010AA  25315.28490000  .00001103  00000+0  10022-3 0  9991",
    "TLE_LINE2": "2 55293  69.9988 322.9810 0003132 272.4466  87.6334 14.98330012155531",
    "COMMENT": "Grouped by shell and plane from TLE"
  },
  {
    "OBJECT_NAME": "STARLINK-5285",
    "OBJECT_ID": "23010AD",
    "EPOCH": "2025-11-11T06:26:12.873984",
    "MEAN_MOTION": 14.98335444,
    "ECCENTRICITY": 0.0003017,
    "INCLINATION": 69.9989,
    "RA_OF_ASC_NODE": 322.9205,
    "ARG_OF_PERICENTER": 270.2506,
    "MEAN_ANOMALY": 89.8307,
    "EPHEMERIS_TYPE": 0,
    "CLASSIFICATION_TYPE": "U",
    "NORAD_CAT_ID": 55296,
    "ELEMENT_SET_NO": 999,
    "REV_AT_EPOCH": 15641,
    "BSTAR": 0.00020475,
    "MEAN_MOTION_DOT": 2.351e-05,
    "MEAN_MOTION_DDOT": 0.0,
    "TLE_LINE1": "1 55296U 23010AD  25315.26820456  .00002351  00000+0  20475-3 0  9993",
    "TLE_LINE2": "2 55296  69.9989 322.9205 0003017 270.2506  89.8307 14.98335444156412",
    "COMMENT": "Grouped by shell and plane from TLE"
  },
  {
    "OBJECT_NAME": "STARLINK-5284",
    "OBJECT_ID": "23010AE",
    "EPOCH": "2025-11-11T06:38:13.985664",
    "MEAN_MOTION": 14.98332346,
    "ECCENTRICITY": 0.000299,
    "INCLINATION": 69.9989,
    "RA_OF_ASC_NODE": 322.9515,
    "ARG_OF_PERICENTER": 270.0155,
    "MEAN_ANOMALY": 90.0661,
    "EPHEMERIS_TYPE": 0,
    "CLASSIFICATION_TYPE": "U",
    "NORAD_CAT_ID": 55297,
    "ELEMENT_SET_NO": 999,
    "REV_AT_EPOCH": 15553,
    "BSTAR": 5.659800000000001e-05,
    "MEAN_MOTION_DOT": 5.82e-06,
    "MEAN_MOTION_DDOT": 0.0,
    "TLE_LINE1": "1 55297U 23010AE  25315.27655076  .00000582  00000+0  56598-4 0  9999",
    "TLE_LINE2": "2 55297  69.9989 322.9515 0002990 270.0155  90.0661 14.98332346155531",
    "COMMENT": "Grouped by shell and plane from TLE"
  },
  {
    "OBJECT_NAME": "STARLINK-5270",
    "OBJECT_ID": "23010AG",
    "EPOCH": "2025-11-11T06:20:13.119936",
    "MEAN_MOTION": 14.98327694,
    "ECCENTRICITY": 0.000307,
    "INCLINATION": 69.9986,
    "RA_OF_ASC_NODE": 322.9078,
    "ARG_OF_PERICENTER": 270.6754,
    "MEAN_ANOMALY": 89.4054,
    "EPHEMERIS_TYPE": 0,
    "CLASSIFICATION_TYPE": "U",
    "NORAD_CAT_ID": 55299,
    "ELEMENT_SET_NO": 999,
    "REV_AT_EPOCH": 15641,
    "BSTAR": 0.00010391,
    "MEAN_MOTION_DOT": 1.147e-05,
    "MEAN_MOTION_DDOT": 0.0,
    "TLE_LINE1": "1 55299U 23010AG  25315.26404074  .00001147  00000+0  10391-3 0  9998",
    "TLE_LINE2": "2 55299  69.9986 322.9078 0003070 270.6754  89.4054 14.98327694156411",
    "COMMENT": "Grouped by shell and plane from TLE"
  },
  {
    "OBJECT_NAME": "STARLINK-5308",
    "OBJECT_ID": "23010AH",
    "EPOCH": "2025-11-11T06:14:11.488416",
    "MEAN_MOTION": 14.98339171,
    "ECCENTRICITY": 0.0002754,
    "INCLINATION": 69.999,
    "RA_OF_ASC_NODE": 322.8923,
    "ARG_OF_PERICENTER": 263.2647,
    "MEAN_ANOMALY": 96.8199,
    "EPHEMERIS_TYPE": 0,
    "CLASSIFICATION_TYPE": "U",
    "NORAD_CAT_ID": 55300,
    "ELEMENT_SET_NO": 999,
    "REV_AT_EPOCH": 15553,
    "BSTAR": 0.0,
    "MEAN_MOTION_DOT": -2.29e-06,
    "MEAN_MOTION_DDOT": 0.0,
    "TLE_LINE1": "1 55300U 23010AH  25315.25985519 -.00000229  00000+0 -11382-4 0  9992",
    "TLE_LINE2": "2 55300  69.9990 322.8923 0002754 263.2647  96.8199 14.98339171155531",
    "COMMENT": "Grouped by shell and plane from TLE"
  },
  {
    "OBJECT_NAME": "STARLINK-5321",
    "OBJECT_ID": "23010AK",
    "EPOCH": "2025-11-11T06:32:13.053120",
    "MEAN_MOTION": 14.98337143,
    "ECCENTRICITY": 0.000296,
    "INCLINATION": 69.9991,
    "RA_OF_ASC_NODE": 322.9329,
    "ARG_OF_PERICENTER": 267.9385,
    "MEAN_ANOMALY": 92.1435,
    "EPHEMERIS_TYPE": 0,
    "CLASSIFICATION_TYPE": "U",
    "NORAD_CAT_ID": 55302,
    "ELEMENT_SET_NO": 999,
    "REV_AT_EPOCH": 15553,
    "BSTAR": 6.7841e-05,
    "MEAN_MOTION_DOT": 7.17e-06,
    "MEAN_MOTION_DDOT": 0.0,
    "TLE_LINE1": "1 55302U 23010AK  25315.27237330  .00000717  00000+0  67841-4 0  9998",
    "TLE_LINE2": "2 55302  69.9991 322.9329 0002960 267.9385  92.1435 14.98337143155533",
    "COMMENT": "Grouped by shell and plane from TLE"
  },
  {
    "OBJECT_NAME": "STARLINK-5318",
    "OBJECT_ID": "23010AM",
    "EPOCH": "2025-11-11T06:08:11.710176",
    "MEAN_MOTION": 14.98333695,
    "ECCENTRICITY": 0.0003096,
    "INCLINATION": 69.9983,
    "RA_OF_ASC_NODE": 322.8774,
    "ARG_OF_PERICENTER": 271.0166,
    "MEAN_ANOMALY": 89.0638,
    "EPHEMERIS_TYPE": 0,
    "CLASSIFICATION_TYPE": "U",
    "NORAD_CAT_ID": 55304,
    "ELEMENT_SET_NO": 999,
    "REV_AT_EPOCH": 15553,
    "BSTAR": 0.0001178,
    "MEAN_MOTION_DOT": 1.313e-05,
    "MEAN_MOTION_DDOT": 0.0,
    "TLE_LINE1": "1 55304U 23010AM  25315.25569109  .00001313  00000+0  11780-3 0  9993",
    "TLE_LINE2": "2 55304  69.9983 322.8774 0003096 271.0166  89.0638 14.98333695155531",
    "COMMENT": "Grouped by shell and plane from TLE"
  },
  {
    "OBJECT_NAME": "STARLINK-5316",
    "OBJECT_ID": "23010AN",
    "EPOCH": "2025-11-11T07:38:18.623904",
    "MEAN_MOTION": 14.98351257,
    "ECCENTRICITY": 0.0003002,
    "INCLINATION": 69.9986,
    "RA_OF_ASC_NODE": 323.0994,
    "ARG_OF_PERICENTER": 268.6256,
    "MEAN_ANOMALY": 91.4559,
    "EPHEMERIS_TYPE": 0,
    "CLASSIFICATION_TYPE": "U",
    "NORAD_CAT_ID": 55305,
    "ELEMENT_SET_NO": 999,
    "REV_AT_EPOCH": 15554,
    "BSTAR": 0.00019283,
    "MEAN_MOTION_DOT": 2.21e-05,
    "MEAN_MOTION_DDOT": 0.0,
    "TLE_LINE1": "1 55305U 23010AN  25315.31827111  .00002210  00000+0  19283-3 0  9994",
    "TLE_LINE2": "2 55305  69.9986 323.0994 0003002 268.6256  91.4559 14.98351257155545",
    "COMMENT": "Grouped by shell and plane from TLE"
  },
  {
    "OBJECT_NAME": "STARLINK-4623",
    "OBJECT_ID": "23010AY",
    "EPOCH": "2025-11-11T06:56:16.110240",
    "MEAN_MOTION": 14.9833197,
    "ECCENTRICITY": 0.0003022,
    "INCLINATION": 69.9987,
    "RA_OF_ASC_NODE": 322.9956,
    "ARG_OF_PERICENTER": 270.337,
    "MEAN_ANOMALY": 89.7443,
    "EPHEMERIS_TYPE": 0,
    "CLASSIFICATION_TYPE": "U",
    "NORAD_CAT_ID": 55315,
    "ELEMENT_SET_NO": 999,
    "REV_AT_EPOCH": 15552,
    "BSTAR": 8.994900000000001e-06,
    "MEAN_MOTION_DOT": 1.4e-07,
    "MEAN_MOTION_DDOT": 0.0,
    "TLE_LINE1": "1 55315U 23010AY  25315.28907535  .00000014  00000+0  89949-5 0  9998",
    "TLE_LINE2": "2 55315  69.9987 322.9956 0003022 270.3370  89.7443 14.98331970155522",
    "COMMENT": "Grouped by shell and plane from TLE"
  },
  {
    "OBJECT_NAME": "STARLINK-5936",
    "OBJECT_ID": "23042AB",
    "EPOCH": "2025-11-11T01:54:34.911072",
    "MEAN_MOTION": 15.02543882,
    "ECCENTRICITY": 0.0001172,
    "INCLINATION": 43.0043,
    "RA_OF_ASC_NODE": 327.9971,
    "ARG_OF_PERICENTER": 269.6685,
    "MEAN_ANOMALY": 90.4023,
    "EPHEMERIS_TYPE": 0,
    "CLASSIFICATION_TYPE": "U",
    "NORAD_CAT_ID": 56011,
    "ELEMENT_SET_NO": 999,
    "REV_AT_EPOCH": 14521,
    "BSTAR": 0.00010868999999999999,
    "MEAN_MOTION_DOT": 1.265e-05,
    "MEAN_MOTION_DDOT": 0.0,
    "TLE_LINE1": "1 56011U 23042AB  25315.07957073  .00001265  00000+0  10869-3 0  9998",
    "TLE_LINE2": "2 56011  43.0043 327.9971 0001172 269.6685  90.4023 15.02543882145219",
    "COMMENT": "Grouped by shell and plane from TLE"
  },
  {
    "OBJECT_NAME": "STARLINK-5940",
    "OBJECT_ID": "23042AC",
    "EPOCH": "2025-11-11T02:02:34.766304",
    "MEAN_MOTION": 15.02537646,
    "ECCENTRICITY": 0.0001218,
    "INCLINATION": 43.0037,
    "RA_OF_ASC_NODE": 328.0391,
    "ARG_OF_PERICENTER": 267.1266,
    "MEAN_ANOMALY": 92.9437,
    "EPHEMERIS_TYPE": 0,
    "CLASSIFICATION_TYPE": "U",
    "NORAD_CAT_ID": 56012,
    "ELEMENT_SET_NO": 999,
    "REV_AT_EPOCH": 14521,
    "BSTAR": 4.4382e-05,
    "MEAN_MOTION_DOT": 3.96e-06,
    "MEAN_MOTION_DDOT": 0.0,
    "TLE_LINE1": "1 56012U 23042AC  25315.08512461  .00000396  00000+0  44382-4 0  9990",
    "TLE_LINE2": "2 56012  43.0037 328.0391 0001218 267.1266  92.9437 15.02537646145217",
    "COMMENT": "Grouped by shell and plane from TLE"
  },
  {
    "OBJECT_NAME": "STARLINK-5942",
    "OBJECT_ID": "23042AE",
    "EPOCH": "2025-11-11T01:52:59.423520",
    "MEAN_MOTION": 15.02540001,
    "ECCENTRICITY": 0.0001398,
    "INCLINATION": 43.0053,
    "RA_OF_ASC_NODE": 327.9857,
    "ARG_OF_PERICENTER": 267.4598,
    "MEAN_ANOMALY": 92.6084,
    "EPHEMERIS_TYPE": 0,
    "CLASSIFICATION_TYPE": "U",
    "NORAD_CAT_ID": 56014,
    "ELEMENT_SET_NO": 999,
    "REV_AT_EPOCH": 14521,
    "BSTAR": 6.862e-05,
    "MEAN_MOTION_DOT": 7.23e-06,
    "MEAN_MOTION_DDOT": 0.0,
    "TLE_LINE1": "1 56014U 23042AE  25315.07846555  .00000723  00000+0  68620-4 0  9990",
    "TLE_LINE2": "2 56014  43.0053 327.9857 0001398 267.4598  92.6084 15.02540001145216",
    "COMMENT": "Grouped by shell and plane from TLE"
  },
  {
    "OBJECT_NAME": "STARLINK-5939",
    "OBJECT_ID": "23042AF",
    "EPOCH": "2025-11-11T01:57:47.118240",
    "MEAN_MOTION": 15.02537394,
    "ECCENTRICITY": 0.0001124,
    "INCLINATION": 43.0049,
    "RA_OF_ASC_NODE": 328.0151,
    "ARG_OF_PERICENTER": 266.4529,
    "MEAN_ANOMALY": 93.6185,
    "EPHEMERIS_TYPE": 0,
    "CLASSIFICATION_TYPE": "U",
    "NORAD_CAT_ID": 56015,
    "ELEMENT_SET_NO": 999,
    "REV_AT_EPOCH": 14521,
    "BSTAR": 0.00014659,
    "MEAN_MOTION_DOT": 1.777e-05,
    "MEAN_MOTION_DDOT": 0.0,
    "TLE_LINE1": "1 56015U 23042AF  25315.08179535  .00001777  00000+0  14659-3 0  9991",
    "TLE_LINE2": "2 56015  43.0049 328.0151 0001124 266.4529  93.6185 15.02537394145215",
    "COMMENT": "Grouped by shell and plane from TLE"
  }
]